ONEWEB-0283             
1 49001U 21060AL  24130.75607491 -.00000185  00000+0 -51765-3 0  9994
2 49001  87.9142  21.7531 0001772  90.8269 269.3065 13.16594114138500
ONEWEB-0284             
1 49002U 21060AM  24130.74974851  .00000142  00000+0  33909-3 0  9992
2 49002  87.9135  21.7403 0002035  86.0048 274.1315 13.16592672138482
ONEWEB-0285             
1 49075U 21075A   24130.74307216 -.00000167  00000+0 -49911-3 0  9992
2 49075  87.8933 143.6548 0002108  91.2992 268.8378 13.12441880134416
ONEWEB-0286             
1 49076U 21075B   24130.56187187  .00000447  00000+0  12058-2 0  9996
2 49076  87.8928 143.6948 0001959  80.5963 279.5386 13.12443248133740
ONEWEB-0287             
1 49077U 21075C   24130.61722051  .00000002  00000+0 -28588-4 0  9993
2 49077  87.9178 158.8290 0002291  84.2756 275.8636 13.17648175132419
ONEWEB-0288             
1 49078U 21075D   24130.54598610  .00000033  00000+0  55146-4 0  9991
2 49078  87.8927 143.7012 0002164  88.1923 271.9453 13.12444552134362
ONEWEB-0289             
1 49079U 21075E   24130.64568930 -.00000010  00000+0 -58612-4 0  9993
2 49079  87.9178 158.8502 0002038  98.2239 261.9123 13.17646954132990
ONEWEB-0290             
1 49080U 21075F   24130.62829627 -.00000008  00000+0 -53198-4 0  9997
2 49080  87.9177 158.8153 0002536  90.4622 269.6800 13.17648370132403
